CORAL                   
1 67684U 98067YA  26092.33001976  .00125323  00000+0  15847-2 0  9991
2 67684  51.6292 313.2725 0013294 262.6844  97.2637 15.58508636  8472
GXIBA-1                 
1 67685U 98067YB  26092.33482644  .00063698  00000+0  94793-3 0  9991
2 67685  51.6311 314.0552 0012289 269.6614  90.2969 15.54444471  8469
UITMSAT-2               
1 67686U 98067YC  26092.63851904  .00069503  00000+0  99291-3 0  9993
2 67686  51.6305 312.3353 0009377 244.7057 115.2963 15.55557558  8512
HMU-SAT2                
1 67687U 98067YD  26092.01899921  .00048045  00000+0  72719-3 0  9991
2 67687  51.6316 315.6984 0008907 244.0786 115.9287 15.54142799  8333
LEOPARD                 
1 67688U 98067YE  26092.32529035  .00072153  00000+0  10507-2 0  9995
2 67688  51.6308 313.9945 0009067 243.2644 116.7419 15.55023606  8382
CREW DRAGON 12          
1 67796U 26031A   26092.84326289  .00011825  00000+0  22447-3 0  9996
2 67796  51.6328 312.9475 0006236 264.7845  95.2432 15.48729122560047
PROGRESS-MS 33          
1 68319U 26058A   26092.84326289  .00011825  00000+0  22447-3 0  9997
2 68319  51.6328 312.9475 0006236 264.7845  95.2432 15.48729122  1555
